ORBCOMM FM37            
1 33064U 08031E   24130.17661132  .00003026  00000+0  46013-3 0  9992
2 33064  48.4395  99.4567 0005470  82.9391 290.4722 14.76387046854288
ORBCOMM FM40            
1 33065U 08031F   24130.26762590  .00003818  00000+0  55574-3 0  9994
2 33065  48.4422  88.4119 0006795  93.3309  57.9695 14.77699845854332
VESSELSAT 1             
1 37840U 11058C   24130.37001089  .00000453  00000+0  10313-3 0  9997
2 37840  19.9636  17.0049 0013758  65.5558 294.6281 14.11149032649194
ORBCOMM FM109           
1 40086U 14040A   24130.34095409  .00001259  00000+0  31717-3 0  9999
2 40086  47.0026 121.3996 0002702 271.9008  88.1568 14.56576555522158
ORBCOMM FM107           
1 40087U 14040B   24130.23802373  .00001349  00000+0  33721-3 0  9991
2 40087  47.0044 122.8504 0001923 251.6358 108.4317 14.56585295522213
ORBCOMM FM106           
1 40088U 14040C   24130.64750728  .00001840  00000+0  35704-3 0  9992
2 40088  47.0617 334.1192 0017704 351.9298   8.1305 14.67000981524381
ORBCOMM FM111           
1 40089U 14040D   24130.55085126  .00003993  00000+0  52273-3 0  9997
2 40089  47.0035 235.7057 0031927  64.4281 295.9909 14.81737682530275
ORBCOMM FM104           
1 40090U 14040E   24130.34497666  .00000826  00000+0  22775-3 0  9998
2 40090  47.0040 151.2453 0016542 163.5966 196.5457 14.55107010521778
